NORAD_CAT_ID,OBJECT_NAME,OBJECT_TYPE,EPOCH,MEAN_MOTION,ECCENTRICITY,INCLINATION,RA_OF_ASC_NODE,ARG_OF_PERICENTER,MEAN_ANOMALY,BSTAR,MEAN_MOTION_DOT,MEAN_MOTION_DDOT,TLE_LINE0,TLE_LINE1,TLE_LINE2,SEMIMAJOR_AXIS,PERIOD,APOGEE,PERIGEE,DECAYED
55312.0,STARLINK-5296,PAYLOAD,2024-06-09 17:30:16,14.98328278,0.000343,69.9987,172.7988,269.306,90.7706,0.00011265,1.251e-05,0.0,0 STARLINK-5296,1 55312U 23010AV  24161.72936121  .00001251  00000-0  11265-3 0  9994,2 55312  69.9987 172.7988 0003430 269.3060  90.7706 14.98328278 79089,6950.198,96.107,574.447,569.679,0.0
55312.0,STARLINK-5296,PAYLOAD,2024-06-10 04:43:13,14.98331654,0.0003411,69.9987,171.6206,269.2145,90.8623,9.0455e-05,9.86e-06,0.0,0 STARLINK-5296,1 55312U 23010AV  24162.19668006  .00000986  00000-0  90455-4 0  9993,2 55312  69.9987 171.6206 0003411 269.2145  90.8623 14.98331654 77968,6950.188,96.107,574.423,569.682,0.0
55312.0,STARLINK-5296,PAYLOAD,2024-06-10 09:31:37,14.9833253,0.000324,69.9987,171.1156,267.1533,92.9256,9.6237e-05,1.055e-05,0.0,0 STARLINK-5296,1 55312U 23010AV  24162.39695937  .00001055  00000-0  96237-4 0  9990,2 55312  69.9987 171.1156 0003240 267.1533  92.9256 14.98332530 79180,6950.185,96.107,574.302,569.798,0.0
55312.0,STARLINK-5296,PAYLOAD,2024-06-10 17:32:17,14.98332133,0.0003362,69.9989,170.274,269.4071,90.6702,7.4461e-05,7.96e-06,0.0,0 STARLINK-5296,1 55312U 23010AV  24162.73075977  .00000796  00000-0  74461-4 0  9990,2 55312  69.9989 170.2740 0003362 269.4071  90.6702 14.98332133 79234,6950.186,96.107,574.388,569.715,0.0
55312.0,STARLINK-5296,PAYLOAD,2024-06-11 06:21:22,14.98329121,0.0003216,69.9988,168.9279,271.5716,88.5075,0.00012071,1.348e-05,0.0,0 STARLINK-5296,1 55312U 23010AV  24163.26484112  .00001348  00000-0  12071-3 0  9996,2 55312  69.9988 168.9279 0003216 271.5716  88.5075 14.98329121 78121,6950.196,96.107,574.296,569.825,0.0
55312.0,STARLINK-5296,PAYLOAD,2024-06-11 09:33:38,14.98332062,0.0003361,69.9988,168.5912,267.697,92.3804,6.0608e-05,6.3e-06,0.0,0 STARLINK-5296,1 55312U 23010AV  24163.39835957  .00000630  00000-0  60608-4 0  9990,2 55312  69.9988 168.5912 0003361 267.6970  92.3804 14.98332062 79335,6950.187,96.107,574.387,569.716,0.0
55312.0,STARLINK-5296,PAYLOAD,2024-06-12 06:23:23,14.98329846,0.0003276,69.9989,166.4033,267.4465,92.6319,7.1697e-06,-8e-08,0.0,0 STARLINK-5296,1 55312U 23010AV  24164.26624183 -.00000008  00000-0  71697-5 0  9995,2 55312  69.9989 166.4033 0003276 267.4465  92.6319 14.98329846 78271,6950.193,96.107,574.335,569.781,0.0
55312.0,STARLINK-5296,PAYLOAD,2024-06-12 17:36:19,14.98329799,0.0003341,69.9987,165.225,268.604,91.4736,1.0196e-05,2.9e-07,0.0,0 STARLINK-5296,1 55312U 23010AV  24164.73356142  .00000029  00000-0  10196-4 0  9992,2 55312  69.9987 165.2250 0003341 268.6040  91.4736 14.98329799 79539,6950.194,96.107,574.381,569.736,0.0
55312.0,STARLINK-5296,PAYLOAD,2024-06-13 09:37:40,14.98330493,0.0003353,69.9987,163.5417,268.2122,91.8653,2.5604e-05,2.12e-06,0.0,0 STARLINK-5296,1 55312U 23010AV  24165.40116074  .00000212  00000-0  25604-4 0  9999,2 55312  69.9987 163.5417 0003353 268.2122  91.8653 14.98330493 78449,6950.191,96.107,574.387,569.726,0.0
55312.0,STARLINK-5296,PAYLOAD,2024-06-14 09:39:41,14.9833084,0.0003352,69.9988,161.0165,267.815,92.2625,5.0101e-05,5.05e-06,0.0,0 STARLINK-5296,1 55312U 23010AV  24166.40256019  .00000505  00000-0  50101-4 0  9999,2 55312  69.9988 161.0165 0003352 267.8150  92.2625 14.98330840 79786,6950.19,96.107,574.385,569.726,0.0
55312.0,STARLINK-5296,PAYLOAD,2024-06-15 09:41:41,14.98336641,0.0003336,69.9988,158.4916,267.7517,92.326,9.353e-05,1.023e-05,0.0,0 STARLINK-5296,1 55312U 23010AV  24167.40395383  .00001023  00000-0  93530-4 0  9997,2 55312  69.9988 158.4916 0003336 267.7517  92.3260 14.98336641 79936,6950.172,96.107,574.356,569.719,0.0
55312.0,STARLINK-5296,PAYLOAD,2024-06-15 16:06:14,14.98332342,0.0003312,69.9989,157.8182,267.9309,92.1471,4.868e-05,4.88e-06,0.0,0 STARLINK-5296,1 55312U 23010AV  24167.67099710  .00000488  00000-0  48680-4 0  9991,2 55312  69.9989 157.8182 0003312 267.9309  92.1471 14.98332342 79970,6950.186,96.107,574.353,569.749,0.0
55312.0,STARLINK-5296,PAYLOAD,2024-06-16 09:43:42,14.98331555,0.0003222,69.9991,155.967,267.4709,92.6081,3.5117e-05,3.26e-06,0.0,0 STARLINK-5296,1 55312U 23010AV  24168.40535745  .00000326  00000-0  35117-4 0  9998,2 55312  69.9991 155.9670 0003222 267.4709  92.6081 14.98331555 80084,6950.188,96.107,574.292,569.814,0.0
55312.0,STARLINK-5296,PAYLOAD,2024-06-16 16:08:15,14.98330392,0.0003218,69.9991,155.2937,267.6037,92.4754,4.1293e-06,-4.4e-07,0.0,0 STARLINK-5296,1 55312U 23010AV  24168.67239877 -.00000044  00000-0  41293-5 0  9995,2 55312  69.9991 155.2937 0003218 267.6037  92.4754 14.98330392 80122,6950.192,96.107,574.293,569.82,0.0
55312.0,STARLINK-5296,PAYLOAD,2024-06-17 16:10:16,14.98330486,0.0003151,69.9993,152.7689,268.1964,91.8834,-4.8933e-06,-1.51e-06,0.0,0 STARLINK-5296,1 55312U 23010AV  24169.67379810 -.00000151  00000-0 -48933-5 0  9996,2 55312  69.9993 152.7689 0003151 268.1964  91.8834 14.98330486 80273,6950.191,96.107,574.246,569.866,0.0
55312.0,STARLINK-5296,PAYLOAD,2024-06-18 04:59:19,14.98338344,0.0002993,69.9993,151.4221,263.5814,96.5004,0.00013381,1.504e-05,0.0,0 STARLINK-5296,1 55312U 23010AV  24170.20786901  .00001504  00000-0  13381-3 0  9998,2 55312  69.9993 151.4221 0002993 263.5814  96.5004 14.98338344 79165,6950.167,96.106,574.112,569.952,0.0
55312.0,STARLINK-5296,PAYLOAD,2024-06-18 08:11:35,14.98343839,0.0003199,69.9991,151.0855,267.3889,92.6904,0.00018678,2.137e-05,0.0,0 STARLINK-5296,1 55312U 23010AV  24170.34138329  .00002137  00000-0  18678-3 0  9995,2 55312  69.9991 151.0855 0003199 267.3889  92.6904 14.98343839 80371,6950.15,96.106,574.238,569.792,0.0
55312.0,STARLINK-5296,PAYLOAD,2024-06-18 16:12:16,14.98334158,0.0003104,69.9992,150.2439,271.9374,88.1429,7.2783e-05,7.76e-06,0.0,0 STARLINK-5296,1 55312U 23010AV  24170.67519130  .00000776  00000-0  72783-4 0  9999,2 55312  69.9992 150.2439 0003104 271.9374  88.1429 14.98334158 79236,6950.18,96.107,574.202,569.888,0.0
55312.0,STARLINK-5296,PAYLOAD,2024-06-19 05:01:21,14.9832191,0.0002857,69.9993,148.8941,264.1707,95.9126,-1.6994e-05,-2.96e-06,0.0,0 STARLINK-5296,1 55312U 23010AV  24171.20928212 -.00000296  00000-0 -16994-4 0  9995,2 55312  69.9993 148.8941 0002857 264.1707  95.9126 14.98321910 79317,6950.218,96.108,574.069,570.097,0.0
55312.0,STARLINK-5296,PAYLOAD,2024-06-19 08:13:38,14.98322643,0.0003229,69.9993,148.5612,269.7186,90.3603,-3.6008e-05,-5.23e-06,0.0,0 STARLINK-5296,1 55312U 23010AV  24171.34280294 -.00000523  00000-0 -36008-4 0  9992,2 55312  69.9993 148.5612 0003229 269.7186  90.3603 14.98322643 80523,6950.216,96.107,574.325,569.836,0.0
55312.0,STARLINK-5296,PAYLOAD,2024-06-19 22:38:50,14.98325408,0.0003321,69.999,147.0457,270.4487,89.6292,-2.2999e-05,-3.67e-06,0.0,0 STARLINK-5296,1 55312U 23010AV  24171.94364227 -.00000367  00000-0 -22999-4 0  9997,2 55312  69.9990 147.0457 0003321 270.4487  89.6292 14.98325408 80614,6950.207,96.107,574.38,569.764,0.0
55312.0,STARLINK-5296,PAYLOAD,2024-06-20 05:03:22,14.98335101,0.0003368,69.9991,146.3727,270.132,89.9453,-0.0001023,-1.314e-05,0.0,0 STARLINK-5296,1 55312U 23010AV  24172.21067886 -.00001314  00000-0 -10230-3 0  9996,2 55312  69.9991 146.3727 0003368 270.1320  89.9453 14.98335101 79465,6950.177,96.107,574.383,569.701,0.0
55312.0,STARLINK-5296,PAYLOAD,2024-06-20 08:15:38,14.98336875,0.0003325,69.9991,146.0359,270.1421,89.9357,-8.2089e-05,-1.073e-05,0.0,0 STARLINK-5296,1 55312U 23010AV  24172.34419678 -.00001073  00000-0 -82089-4 0  9994,2 55312  69.9991 146.0359 0003325 270.1421  89.9357 14.98336875 80675,6950.172,96.107,574.348,569.726,0.0
55312.0,STARLINK-5296,PAYLOAD,2024-06-20 22:40:51,14.98325233,0.0003301,69.9992,144.521,271.8087,88.2694,0.00013436,1.51e-05,0.0,0 STARLINK-5296,1 55312U 23010AV  24172.94503753  .00001510  00000-0  13436-3 0  9991,2 55312  69.9992 144.5210 0003301 271.8087  88.2694 14.98325233 80767,6950.208,96.107,574.367,569.778,0.0
55312.0,STARLINK-5296,PAYLOAD,2024-06-21 05:05:23,14.9832859,0.0003299,69.9992,143.8478,271.6928,88.3853,0.00014254,1.608e-05,0.0,0 STARLINK-5296,1 55312U 23010AV  24173.21207606  .00001608  00000-0  14254-3 0  9997,2 55312  69.9992 143.8478 0003299 271.6928  88.3853 14.98328590 79612,6950.197,96.107,574.355,569.769,0.0
55312.0,STARLINK-5296,PAYLOAD,2024-06-21 08:17:39,14.98330922,0.0003292,69.9992,143.5111,271.7075,88.3706,0.00016275,1.849e-05,0.0,0 STARLINK-5296,1 55312U 23010AV  24173.34559416  .00001849  00000-0  16275-3 0  9992,2 55312  69.9992 143.5111 0003292 271.7075  88.3706 14.98330922 80824,6950.19,96.107,574.343,569.767,0.0
55312.0,STARLINK-5296,PAYLOAD,2024-06-21 22:42:52,14.98329165,0.0003167,69.9995,141.9962,272.1337,87.9459,1.9774e-05,1.43e-06,0.0,0 STARLINK-5296,1 55312U 23010AV  24173.94643982  .00000143  00000-0  19774-4 0  9994,2 55312  69.9995 141.9962 0003167 272.1337  87.9459 14.98329165 80917,6950.195,96.107,574.262,569.859,0.0
55312.0,STARLINK-5296,PAYLOAD,2024-06-22 06:43:32,14.98330104,0.0003103,69.9996,141.1555,270.4248,89.6555,3.8079e-05,3.61e-06,0.0,0 STARLINK-5296,1 55312U 23010AV  24174.28023879  .00000361  00000-0  38079-4 0  9990,2 55312  69.9996 141.1555 0003103 270.4248  89.6555 14.98330104 79773,6950.193,96.107,574.214,569.901,0.0
55312.0,STARLINK-5296,PAYLOAD,2024-06-22 22:44:53,14.9833361,0.000298,69.9998,139.4722,262.2637,97.8184,1.3414e-05,6.7e-07,0.0,0 STARLINK-5296,1 55312U 23010AV  24174.94783596  .00000067  00000-0  13414-4 0  9991,2 55312  69.9998 139.4722 0002980 262.2637  97.8184 14.98333610 81063,6950.182,96.107,574.118,569.976,0.0
55312.0,STARLINK-5296,PAYLOAD,2024-06-23 06:45:33,14.98333813,0.0002984,69.9999,138.6307,261.2699,98.8122,1.5038e-05,8.6e-07,0.0,0 STARLINK-5296,1 55312U 23010AV  24175.28163500  .00000086  00000-0  15038-4 0  9991,2 55312  69.9999 138.6307 0002984 261.2699  98.8122 14.98333813 79925,6950.181,96.107,574.12,569.972,0.0
